[{"OBJECT_NAME":"OBJECT N","OBJECT_ID":"2024-205N","EPOCH":"2026-03-09T22:36:13.267872","MEAN_MOTION":15.33862123,"ECCENTRICITY":0.00094432,"INCLINATION":97.4211,"RA_OF_ASC_NODE":148.9295,"ARG_OF_PERICENTER":39.7652,"MEAN_ANOMALY":320.4281,"EPHEMERIS_TYPE":0,"CLASSIFICATION_TYPE":"U","NORAD_CAT_ID":61906,"ELEMENT_SET_NO":999,"REV_AT_EPOCH":7364,"BSTAR":0.00078005624,"MEAN_MOTION_DOT":0.00025559,"MEAN_MOTION_DDOT":0},{"OBJECT_NAME":"STARLINK-34542","OBJECT_ID":"2025-224J","EPOCH":"2026-03-09T01:17:23.569728","MEAN_MOTION":15.30194591,"ECCENTRICITY":0.00011041,"INCLINATION":53.162,"RA_OF_ASC_NODE":14.5417,"ARG_OF_PERICENTER":84.9948,"MEAN_ANOMALY":275.1179,"EPHEMERIS_TYPE":0,"CLASSIFICATION_TYPE":"U","NORAD_CAT_ID":65890,"ELEMENT_SET_NO":999,"REV_AT_EPOCH":2477,"BSTAR":0.00055824367,"MEAN_MOTION_DOT":0.00016208,"MEAN_MOTION_DDOT":0}]
